GLOBALSTAR M067 [+]     
1 32263U 07048A   23263.50980003 -.00000082  00000+0  11446-3 0  9995
2 32263  51.9720  95.9056 0001686  71.2835 310.0198 12.40631890730582
GLOBALSTAR M070 [+]     
1 32264U 07048B   23263.48500723 -.00000071  00000+0  18514-3 0  9991
2 32264  51.9734 265.0422 0000599 119.3475  45.4890 12.62278400733388
GLOBALSTAR M066 [+]     
1 32265U 07048C   23263.41857517 -.00000069  00000+0  19680-3 0  9993
2 32265  51.9665 127.3197 0001036  26.2130  30.3794 12.62264755735647
GLOBALSTAR M068 [-]     
1 32266U 07048D   23263.03581944 -.00000118  00000+0 -77201-4 0  9990
2 32266  51.9880  81.3585 0001168 128.4805  22.4844 12.62766364737189
GLOBALSTAR M079 [+]     
1 37188U 10054A   23263.50139177 -.00000088  00000+0  90558-4 0  9993
2 37188  52.0026 274.9189 0000331  56.2805  66.5813 12.62267869596173
GLOBALSTAR M074 [+]     
1 37189U 10054B   23263.45399230 -.00000094  00000+0  51914-4 0  9996
2 37189  52.0004 274.4841 0000387  93.3369  54.1885 12.62269958596777
GLOBALSTAR M076 [+]     
1 37190U 10054C   23263.48186148 -.00000086  00000+0  97810-4 0  9999
2 37190  52.0020 274.5114 0000882  58.4589  96.4119 12.62261365596499
GLOBALSTAR M077 [+]     
1 37191U 10054D   23263.39228081 -.00000088  00000+0  85266-4 0  9997
2 37191  52.0055 231.4571 0000472  74.2631  91.8645 12.62260747596852
